FLOCK 4G-25             
1 62646U 25009AP  26068.74572546  .00010373  00000+0  38902-3 0  9990
2 62646  97.4049 151.4141 0000828 316.3151  43.8023 15.27424196 63734
STARLINK-36471          
1 67324U 26002V   26068.11900643  .00028792  00000+0  10515-2 0  9999
2 67324  43.0021 328.3142 0001393 277.6642  82.4051 15.27585850 10992
